     2.11           N: GPS NAV DATA                         RINEX VERSION / TYPE
teqc  2018Dec12     gpsops              20220415 01:04:12UTCPGM / RUN BY / DATE
Linux 2.6.32-573.12.1.x86_64|x86_64|gcc -static|Linux 64|=+ COMMENT
CHPI                                    MARKER NAME         COMMENT
41609M003                               MARKER NUMBER       COMMENT
4164613.9484 -4162456.9866 -2445028.7316                    COMMENT
                                                            COMMENT
This data is provided as a public service by NASA/JPL.      COMMENT
No warranty is expressed or implied regarding suitability   COMMENT
for use.  For further information, contact:                 COMMENT
Dave Stowers, NASA/JPL m/s 238-600                          COMMENT
4800 Oak Grove Drive, Pasadena CA 91109 USA                 COMMENT
                                                            END OF HEADER
30 22  4 14  0  0  0.0-5.236291326582D-04-1.705302565824D-12 0.000000000000D+00
    8.500000000000D+01 6.709375000000D+01 4.920204946285D-09 2.409116572827D+00
    3.455206751823D-06 5.683579714969D-03 1.064501702785D-05 5.153788469315D+03
    3.456000000000D+05-5.774199962616D-08 2.329261998655D-01-1.862645149231D-09
    9.365027962548D-01 1.616562500000D+02-2.719687073677D+00-8.219628094789D-09
    4.471614832135D-10 1.000000000000D+00 2.205000000000D+03 0.000000000000D+00
    2.000000000000D+00 0.000000000000D+00 3.725290298462D-09 8.500000000000D+01
    3.384180000000D+05 4.000000000000D+00
17 22  4 14  2  0  0.0 6.000543944538D-04 4.888534022029D-12 0.000000000000D+00
    8.200000000000D+01-3.987500000000D+01 4.091956160685D-09-4.927295783361D-02
   -2.359971404076D-06 1.344720216002D-02 1.049414277077D-05 5.153789691925D+03
    3.528000000000D+05-1.769512891769D-07 2.371870906744D+00-2.980232238770D-08
    9.792185705097D-01 1.895625000000D+02-1.490805041465D+00-8.042835016362D-09
   -3.075128091428D-10 1.000000000000D+00 2.205000000000D+03 0.000000000000D+00
    2.000000000000D+00 0.000000000000D+00-1.117587089539D-08 8.200000000000D+01
    3.456180000000D+05 4.000000000000D+00
19 22  4 14  2  0  0.0 1.440644264221D-04 5.002220859751D-12 0.000000000000D+00
    7.100000000000D+01-3.793750000000D+01 3.976594212539D-09 2.378479494338D+00
   -2.119690179825D-06 9.134151274338D-03 1.112930476665D-05 5.153699356079D+03
    3.528000000000D+05 1.564621925354D-07 2.416695822659D+00-1.490116119385D-08
    9.780515832028D-01 1.725000000000D+02 2.035411108071D+00-7.652818770620D-09
   -3.910877189447D-10 1.000000000000D+00 2.205000000000D+03 0.000000000000D+00
    2.000000000000D+00 0.000000000000D+00-1.583248376846D-08 7.100000000000D+01
    3.456180000000D+05 4.000000000000D+00
13 22  4 14  2  0  0.0 2.937684766948D-04 6.707523425575D-12 0.000000000000D+00
    5.900000000000D+01-7.687500000000D+01 4.230533361553D-09-4.481090320770D-01
   -4.027038812637D-06 5.850418237969D-03 1.151859760284D-05 5.153681009293D+03
    3.528000000000D+05-1.117587089539D-08-6.970669254640D-01 7.823109626770D-08
    9.687638176787D-01 1.575625000000D+02 9.306489207831D-01-8.003547665600D-09
   -4.525188492264D-10 1.000000000000D+00 2.205000000000D+03 0.000000000000D+00
    2.000000000000D+00 0.000000000000D+00-1.117587089539D-08 5.900000000000D+01
    3.456180000000D+05 4.000000000000D+00
28 22  4 14  2  0  0.0 3.715874627233D-04-3.524291969370D-12 0.000000000000D+00
    6.000000000000D+01-3.062500000000D+00 4.838415825154D-09 4.799891710756D-01
   -2.831220626831D-07 1.664913585410D-02 4.064291715622D-06 5.153678777695D+03
    3.528000000000D+05-1.396983861923D-07 1.355675237041D+00-1.806765794754D-07
    9.684835752397D-01 3.070312500000D+02-1.282116104071D+00-8.663932316129D-09
   -9.428964182777D-11 1.000000000000D+00 2.205000000000D+03 0.000000000000D+00
    2.800000000000D+00 6.300000000000D+01-1.117587089539D-08 6.000000000000D+01
    3.456180000000D+05 4.000000000000D+00
30 22  4 14  2  0  0.0-5.236417055130D-04-1.705302565824D-12 0.000000000000D+00
    9.200000000000D+01 7.087500000000D+01 4.851987819054D-09-2.823952984405D+00
    3.578141331673D-06 5.682953982614D-03 1.049228012562D-05 5.153789604187D+03
    3.528000000000D+05 0.000000000000D+00 2.328673686149D-01 5.587935447693D-09
    9.365063145728D-01 1.648437500000D+02-2.719689607452D+00-8.151053809823D-09
    4.414469594664D-10 1.000000000000D+00 2.205000000000D+03 0.000000000000D+00
    2.000000000000D+00 0.000000000000D+00 3.725290298462D-09 9.200000000000D+01
    3.456180000000D+05 4.000000000000D+00
14 22  4 14  2  0  0.0-1.022946089506D-04-2.728484105319D-12 0.000000000000D+00
    1.630000000000D+02 5.437500000000D+00 5.073068456521D-09 2.834732990739D+00
    4.097819328308D-07 1.700156833977D-03 3.429129719734D-06 5.153648456573D+03
    3.528000000000D+05-5.215406417847D-08 1.301400514018D+00-1.862645149231D-09
    9.528442041629D-01 3.063750000000D+02 3.053077269380D+00-8.509997332690D-09
    2.857261873569D-11 1.000000000000D+00 2.205000000000D+03 0.000000000000D+00
    2.000000000000D+00 0.000000000000D+00-7.450580596924D-09 9.310000000000D+02
    3.456180000000D+05 4.000000000000D+00
15 22  4 14  2  0  0.0-6.912415847182D-05 2.955857780762D-12 0.000000000000D+00
    5.700000000000D+01-9.706250000000D+01 5.330936340611D-09-9.402482893210D-01
   -4.943460226059D-06 1.398813771084D-02 8.806586265564D-06 5.153770120621D+03
    3.528000000000D+05 3.911554813385D-08-9.584086661622D-01 3.315508365631D-07
    9.300501308582D-01 1.910625000000D+02 1.084628882552D+00-8.651431795432D-09
   -5.857386840816D-10 1.000000000000D+00 2.205000000000D+03 0.000000000000D+00
    2.000000000000D+00 0.000000000000D+00-1.071020960808D-08 5.700000000000D+01
    3.456180000000D+05 4.000000000000D+00
 6 22  4 14  2  0  0.0 2.658939920366D-04 1.364242052659D-11 0.000000000000D+00
    1.080000000000D+02 8.059375000000D+01 3.944092858727D-09-1.924152213394D+00
    4.231929779053D-06 2.653074683622D-03 1.004710793495D-05 5.153708871841D+03
    3.528000000000D+05-2.421438694000D-08-2.921781037394D+00 6.519258022308D-08
    9.870731444499D-01 2.033437500000D+02-8.838692581195D-01-7.751394305258D-09
    4.543046378974D-10 1.000000000000D+00 2.205000000000D+03 0.000000000000D+00
    2.800000000000D+00 0.000000000000D+00 3.725290298462D-09 1.080000000000D+02
    3.456180000000D+05 4.000000000000D+00
 7 22  4 14  2  0  0.0 3.200992941856D-04 1.136868377216D-12 0.000000000000D+00
    1.110000000000D+02 6.850000000000D+01 4.392682972878D-09-2.853868554623D+00
    3.322958946228D-06 1.586584863253D-02 1.074187457561D-05 5.153679260254D+03
    3.528000000000D+05 4.842877388000D-08 2.206081004815D-01-1.154839992523D-07
    9.513579627807D-01 1.651875000000D+02-2.278150689686D+00-7.756394513536D-09
    4.618049503155D-10 1.000000000000D+00 2.205000000000D+03 0.000000000000D+00
    2.000000000000D+00 0.000000000000D+00-1.117587089539D-08 1.110000000000D+02
    3.456180000000D+05 4.000000000000D+00
 5 22  4 14  2  0  0.0-7.821572944522D-05-1.364242052659D-12 0.000000000000D+00
    1.130000000000D+02 6.875000000000D-01 5.194502086148D-09 4.816548744703D-01
    3.129243850708D-07 5.912904744036D-03 2.685934305191D-06 5.153694829941D+03
    3.528000000000D+05-3.352761268616D-08-1.920430590763D+00 4.470348358154D-08
    9.599358941202D-01 3.266875000000D+02 1.009545577660D+00-8.732506601094D-09
   -3.392998474863D-11 1.000000000000D+00 2.205000000000D+03 0.000000000000D+00
    2.000000000000D+00 0.000000000000D+00-1.117587089539D-08 1.130000000000D+02
    3.456180000000D+05 4.000000000000D+00
12 22  4 14  2  0  0.0-1.999912783504D-04-5.798028723802D-12 0.000000000000D+00
    9.600000000000D+01 1.562500000000D+00 4.622692553700D-09 2.805407293960D+00
    6.891787052155D-08 8.721284219064D-03 3.404915332794D-06 5.153560440063D+03
    3.528000000000D+05 6.332993507385D-08 1.333631525140D+00-1.490116119385D-08
    9.694204791798D-01 3.169375000000D+02 1.272528437414D+00-8.154982544899D-09
   -9.643258823294D-12 1.000000000000D+00 2.205000000000D+03 0.000000000000D+00
    2.800000000000D+00 0.000000000000D+00-1.257285475731D-08 9.600000000000D+01
    3.456180000000D+05 4.000000000000D+00
 1 22  4 14  2  0  0.0 3.856006078422D-04-8.753886504564D-12 0.000000000000D+00
    1.020000000000D+02 7.150000000000D+01 3.931235180296D-09-2.179677203093D+00
    3.511086106300D-06 1.171457918826D-02 9.365379810333D-06 5.153666725159D+03
    3.528000000000D+05 1.471489667892D-07-2.913509824384D+00-4.284083843231D-08
    9.877167918318D-01 2.115000000000D+02 8.913015139428D-01-7.615317208529D-09
    5.264505002050D-10 1.000000000000D+00 2.205000000000D+03 0.000000000000D+00
    2.000000000000D+00 0.000000000000D+00 5.122274160385D-09 1.020000000000D+02
    3.456180000000D+05 4.000000000000D+00
24 22  4 14  2  0  0.0 2.568606287241D-04-5.115907697473D-12 0.000000000000D+00
    6.600000000000D+01 5.315625000000D+01 4.760198281365D-09-1.882755714756D+00
    2.708286046982D-06 1.241519500036D-02 1.122243702412D-05 5.153696708679D+03
    3.528000000000D+05 1.844018697739D-07 1.369369778491D-01-1.825392246246D-07
    9.348598558654D-01 1.490312500000D+02 8.126936341691D-01-7.980332412877D-09
    4.135886561991D-10 1.000000000000D+00 2.205000000000D+03 0.000000000000D+00
    2.000000000000D+00 0.000000000000D+00 2.328306436539D-09 6.600000000000D+01
    3.456180000000D+05 4.000000000000D+00
20 22  4 14  2  0  0.0 5.158386193216D-04-2.273736754432D-13 0.000000000000D+00
    7.100000000000D+01 1.656250000000D+01 5.577018019472D-09-1.178182163102D+00
    1.039355993271D-06 4.864106769674D-03 2.630054950714D-06 5.153545404434D+03
    3.528000000000D+05 2.980232238770D-08-2.035550872339D+00-2.793967723846D-08
    9.422721721153D-01 3.193437500000D+02-3.126055796497D+00-8.846797076037D-09
    2.000083311498D-10 1.000000000000D+00 2.205000000000D+03 0.000000000000D+00
    2.000000000000D+00 0.000000000000D+00-8.381903171539D-09 7.100000000000D+01
    3.456720000000D+05 4.000000000000D+00
